IRIDIUM 159             
1 43578U 18061K   25169.50294538  .00000017  00000+0 -98959-6 0  9996
2 43578  86.3988 208.6503 0002057  96.9828 263.1602 14.34217590361254
IRIDIUM 180             
1 43922U 19002A   25169.43267335 -.00000020  00000+0 -14182-4 0  9991
2 43922  86.3988 145.6611 0002263  88.6143 271.5312 14.34217333336892
IRIDIUM 176             
1 43923U 19002B   25169.39581722  .00000838  00000+0  12902-3 0  9998
2 43923  86.6119 145.6680 0004255  84.0799 276.0903 14.72241230345721
IRIDIUM 168             
1 43924U 19002C   25168.86818262 -.00000036  00000+0 -20061-4 0  9990
2 43924  86.3988 145.9637 0002209  87.2916 272.8532 14.34217126336751
IRIDIUM 173             
1 43925U 19002D   25169.41364571  .00000011  00000+0 -31075-5 0  9992
2 43925  86.3985 145.6400 0002356  88.9054 271.2412 14.34217540336826
IRIDIUM 169             
1 43926U 19002E   25168.64090053  .00000151  00000+0  42945-4 0  9999
2 43926  86.4248 177.5432 0003794  83.6943 276.4687 14.38608003337818
IRIDIUM 172             
1 43927U 19002F   25169.40730331  .00000077  00000+0  20543-4 0  9992
2 43927  86.3983 145.6493 0002303  94.4645 265.6813 14.34217052336828
IRIDIUM 175             
1 43928U 19002G   25169.05094985  .00000891  00000+0  13734-3 0  9999
2 43928  86.1499  98.2807 0002853  64.5952 295.5559 14.72244216345665
